ONEWEB-0020             
1 45133U 20008C   25011.60083059 -.00000523  00000+0 -15339-2 0  9990
2 45133  87.8913 140.1723 0001780 101.8147 258.3180 13.10370771240036
ONEWEB-0021             
1 45134U 20008D   25011.38670088 -.00000511  00000+0 -15006-2 0  9998
2 45134  87.8921 140.2397 0001389 106.6881 253.4399 13.10377129240310
ONEWEB-0023             
1 45136U 20008F   25011.39915464  .00000114  00000+0  28929-3 0  9997
2 45136  87.8922 140.2249 0001583  94.3183 265.8125 13.10376996239743
ONEWEB-0024             
1 45137U 20008G   25011.37009487 -.00000480  00000+0 -14112-2 0  9991
2 45137  87.8908 140.1967 0001514 108.1844 251.9449 13.10370963239907
ONEWEB-0025             
1 45138U 20008H   25011.38837679 -.00001054  00000+0 -30567-2 0  9995
2 45138  87.8919 140.1948 0000971  92.4828 267.6411 13.10366589240232
ONEWEB-0026             
1 45139U 20008J   25011.36495369  .00000331  00000+0  89692-3 0  9999
2 45139  87.8915 125.0624 0001791 108.6554 251.4769 13.11417524242718
ONEWEB-0028             
1 45140U 20008K   25011.32000702 -.00000079  00000+0 -25905-3 0  9998
2 45140  87.8909 125.1026 0001180  90.4847 269.6416 13.11413199240223
ONEWEB-0032             
1 45141U 20008L   25011.40330880  .00000354  00000+0  97905-3 0  9994
2 45141  87.8913 140.2401 0001372  98.2625 261.8658 13.10375321239961
